{
  "type": "FeatureCollection",
  "roundInfo": {
    "number": 9,
    "endedAt": null,
    "language": "es"
  },
  "features": [
    {
      "type": "Feature",
      "id": "target",
      "geometry": {
        "type": "Point",
        "coordinates": [
          -74.09104,
          -47.13579
        ]
      },
      "properties": {
        "player": "Target",
        "distance": null,
        "location": "Aysén del General Ibañez del Campo, Chile",
        "marker-symbol": "star",
        "marker-color": "#000000"
      }
    },
    {
      "type": "Feature",
      "geometry": {
        "type": "Point",
        "coordinates": [
          -72.98573,
          -49.280232
        ]
      },
      "properties": {
        "player": "Igorjan94 (wildtravel_club)",
        "distance": 252.1191190140339,
        "location": "Santa Cruz, Argentina",
        "marker-symbol": "circle",
        "marker-color": "#d4af37"
      }
    },
    {
      "type": "Feature",
      "geometry": {
        "type": "Point",
        "coordinates": [
          -72.9069528,
          -49.2957055
        ]
      },
      "properties": {
        "player": "Palin",
        "distance": 255.68527217811732,
        "location": "Santa Cruz, Argentina",
        "marker-symbol": "circle",
        "marker-color": "#c0c0c0"
      }
    },
    {
      "type": "Feature",
      "geometry": {
        "type": "Point",
        "coordinates": [
          -73.0343346,
          -50.4648433
        ]
      },
      "properties": {
        "player": "Talking Nonsense",
        "distance": 378.16766186797565,
        "location": "Santa Cruz, Argentina",
        "marker-symbol": "circle",
        "marker-color": "#cd7f32"
      }
    },
    {
      "type": "Feature",
      "geometry": {
        "type": "Point",
        "coordinates": [
          -72.9501857,
          -50.9431262
        ]
      },
      "properties": {
        "player": "Rikk",
        "distance": 431.43246026307526,
        "location": "Magallanes y Antártica Chilena, Chile",
        "marker-symbol": "circle",
        "marker-color": "#444444"
      }
    },
    {
      "type": "Feature",
      "geometry": {
        "type": "Point",
        "coordinates": [
          -72.79243,
          -50.94292
        ]
      },
      "properties": {
        "player": "mlc",
        "distance": 433.7689963260058,
        "location": "Magallanes y Antártica Chilena, Chile",
        "marker-symbol": "circle",
        "marker-color": "#444444"
      }
    },
    {
      "type": "Feature",
      "geometry": {
        "type": "Point",
        "coordinates": [
          -72.93784149283726,
          -41.46799403919032
        ]
      },
      "properties": {
        "player": "Norton",
        "distance": 636.8565716356893,
        "location": "Los Lagos, Chile",
        "marker-symbol": "circle",
        "marker-color": "#444444"
      }
    },
    {
      "type": "Feature",
      "geometry": {
        "type": "Point",
        "coordinates": [
          -71.37578,
          -40.16536
        ]
      },
      "properties": {
        "player": "BD82",
        "distance": 805.1373767806408,
        "location": "Neuquén, Argentina",
        "marker-symbol": "circle",
        "marker-color": "#444444"
      }
    },
    {
      "type": "Feature",
      "geometry": {
        "type": "Point",
        "coordinates": [
          -68.3128649,
          -54.8097153
        ]
      },
      "properties": {
        "player": "maplemanatee",
        "distance": 943.5901411926978,
        "location": "Tierra del Fuego, Argentina",
        "marker-symbol": "circle",
        "marker-color": "#444444"
      }
    },
    {
      "type": "Feature",
      "geometry": {
        "type": "Point",
        "coordinates": [
          -70.0503388889,
          -33.8280499999
        ]
      },
      "properties": {
        "player": "Loading...",
        "distance": 1518.1462240476944,
        "location": "Santiago Metropolitan, Chile",
        "marker-symbol": "circle",
        "marker-color": "#444444"
      }
    },
    {
      "type": "Feature",
      "geometry": {
        "type": "Point",
        "coordinates": [
          -70.7953094,
          -33.4014891
        ]
      },
      "properties": {
        "player": "maclang23",
        "distance": 1552.1904204043067,
        "location": "Santiago Metropolitan, Chile",
        "marker-symbol": "circle",
        "marker-color": "#444444"
      }
    },
    {
      "type": "Feature",
      "geometry": {
        "type": "Point",
        "coordinates": [
          -58.39136,
          -34.60988
        ]
      },
      "properties": {
        "player": "nhmartin4",
        "distance": 1911.8600543915293,
        "location": "Ciudad de Buenos Aires, Argentina",
        "marker-symbol": "circle",
        "marker-color": "#444444"
      }
    },
    {
      "type": "Feature",
      "geometry": {
        "type": "Point",
        "coordinates": [
          -71.54501511829459,
          -16.40546646575274
        ]
      },
      "properties": {
        "player": "Patxepi",
        "distance": 3425.0837306230505,
        "location": "Arequipa, Peru",
        "marker-symbol": "circle",
        "marker-color": "#444444"
      }
    },
    {
      "type": "Feature",
      "geometry": {
        "type": "Point",
        "coordinates": [
          -67.78504177402684,
          -16.26991366516831
        ]
      },
      "properties": {
        "player": "pandem",
        "distance": 3480.8885539101893,
        "location": "La Paz, Bolivia",
        "marker-symbol": "circle",
        "marker-color": "#444444"
      }
    },
    {
      "type": "Feature",
      "geometry": {
        "type": "Point",
        "coordinates": [
          -75.5845278,
          6.1181111
        ]
      },
      "properties": {
        "player": "Daws",
        "distance": 5923.39851432927,
        "location": "Antioquia, Colombia",
        "marker-symbol": "circle",
        "marker-color": "#444444"
      }
    },
    {
      "type": "Feature",
      "geometry": {
        "type": "Point",
        "coordinates": [
          -82.2638262,
          8.0964365
        ]
      },
      "properties": {
        "player": "georoulette",
        "distance": 6194.448312188072,
        "marker-symbol": "circle",
        "marker-color": "#444444"
      }
    },
    {
      "type": "Feature",
      "geometry": {
        "type": "Point",
        "coordinates": [
          -84.14622512911947,
          9.379095843726935
        ]
      },
      "properties": {
        "player": "Summitblvd",
        "distance": 6362.609583717542,
        "location": "Puntarenas, Costa Rica",
        "marker-symbol": "circle",
        "marker-color": "#444444"
      }
    },
    {
      "type": "Feature",
      "geometry": {
        "type": "Point",
        "coordinates": [
          -84.218731005,
          10.0156330869
        ]
      },
      "properties": {
        "player": "Johann Sebastian Bach",
        "distance": 6433.802239165705,
        "location": "Alajuela, Costa Rica",
        "marker-symbol": "circle",
        "marker-color": "#444444"
      }
    },
    {
      "type": "Feature",
      "geometry": {
        "type": "Point",
        "coordinates": [
          -88.74902823085087,
          15.823289434399953
        ]
      },
      "properties": {
        "player": "Martin",
        "distance": 7152.201710487222,
        "location": "Izabal, Guatemala",
        "marker-symbol": "circle",
        "marker-color": "#ff0000"
      }
    }
  ]
}
