{
  "type": "FeatureCollection",
  "roundInfo": {
    "number": 13,
    "endedAt": null,
    "language": "pt"
  },
  "features": [
    {
      "type": "Feature",
      "id": "target",
      "geometry": {
        "type": "Point",
        "coordinates": [
          -54.07274,
          -21.88133
        ]
      },
      "properties": {
        "player": "Target",
        "distance": null,
        "location": "Mato Grosso do Sul, Brasil",
        "marker-symbol": "star",
        "marker-color": "#000000"
      }
    },
    {
      "type": "Feature",
      "geometry": {
        "type": "Point",
        "coordinates": [
          -54.59518611611662,
          -20.460571297116203
        ]
      },
      "properties": {
        "player": "pandem",
        "distance": 167.01065554761857,
        "location": "Mato Grosso do Sul, Brazil",
        "marker-symbol": "circle",
        "marker-color": "#d4af37"
      }
    },
    {
      "type": "Feature",
      "geometry": {
        "type": "Point",
        "coordinates": [
          -54.5937,
          -25.4087
        ]
      },
      "properties": {
        "player": "mlc",
        "distance": 395.7977689394779,
        "location": "Alto Paraná, Paraguay",
        "marker-symbol": "circle",
        "marker-color": "#c0c0c0"
      }
    },
    {
      "type": "Feature",
      "geometry": {
        "type": "Point",
        "coordinates": [
          -54.63478,
          -25.49771
        ]
      },
      "properties": {
        "player": "BD82",
        "distance": 406.1735899529733,
        "location": "Alto Paraná, Paraguay",
        "marker-symbol": "circle",
        "marker-color": "#cd7f32"
      }
    },
    {
      "type": "Feature",
      "geometry": {
        "type": "Point",
        "coordinates": [
          -54.584665,
          -25.548202
        ]
      },
      "properties": {
        "player": "nhmartin4",
        "distance": 411.0536214019267,
        "location": "Paraná, Brazil",
        "marker-symbol": "circle",
        "marker-color": "#444444"
      }
    },
    {
      "type": "Feature",
      "geometry": {
        "type": "Point",
        "coordinates": [
          -54.5493082,
          -25.5754391
        ]
      },
      "properties": {
        "player": "Palin",
        "distance": 413.61996976678586,
        "location": "Paraná, Brazil",
        "marker-symbol": "circle",
        "marker-color": "#444444"
      }
    },
    {
      "type": "Feature",
      "geometry": {
        "type": "Point",
        "coordinates": [
          -54.479722,
          -25.613333
        ]
      },
      "properties": {
        "player": "Loading...",
        "distance": 417.04147423175505,
        "location": "Paraná, Brazil",
        "marker-symbol": "circle",
        "marker-color": "#444444"
      }
    },
    {
      "type": "Feature",
      "geometry": {
        "type": "Point",
        "coordinates": [
          -54.445,
          -25.7011
        ]
      },
      "properties": {
        "player": "maplemanatee",
        "distance": 426.424082690135,
        "location": "Misiones, Argentina",
        "marker-symbol": "circle",
        "marker-color": "#444444"
      }
    },
    {
      "type": "Feature",
      "geometry": {
        "type": "Point",
        "coordinates": [
          -47.054272,
          -22.9009083
        ]
      },
      "properties": {
        "player": "Rikk",
        "distance": 730.3525513325654,
        "location": "São Paulo, Brazil",
        "marker-symbol": "circle",
        "marker-color": "#444444"
      }
    },
    {
      "type": "Feature",
      "geometry": {
        "type": "Point",
        "coordinates": [
          -46.6641806,
          -23.5636944
        ]
      },
      "properties": {
        "player": "Norton",
        "distance": 782.4292399275828,
        "location": "São Paulo, Brazil",
        "marker-symbol": "circle",
        "marker-color": "#444444"
      }
    },
    {
      "type": "Feature",
      "geometry": {
        "type": "Point",
        "coordinates": [
          -46.4760243,
          -23.4238806
        ]
      },
      "properties": {
        "player": "maclang23",
        "distance": 798.0825777078684,
        "location": "São Paulo, Brazil",
        "marker-symbol": "circle",
        "marker-color": "#444444"
      }
    },
    {
      "type": "Feature",
      "geometry": {
        "type": "Point",
        "coordinates": [
          -70.34893055555555,
          -15.636700000000001
        ]
      },
      "properties": {
        "player": "Patxepi",
        "distance": 1847.4086792120902,
        "location": "Puno, Peru",
        "marker-symbol": "circle",
        "marker-color": "#444444"
      }
    },
    {
      "type": "Feature",
      "geometry": {
        "type": "Point",
        "coordinates": [
          -61.128584924359075,
          10.585860154170948
        ]
      },
      "properties": {
        "player": "Johann Sebastian Bach",
        "distance": 3691.3653305919242,
        "location": "Sangre Grande, Trinidad and Tobago",
        "marker-symbol": "circle",
        "marker-color": "#444444"
      }
    },
    {
      "type": "Feature",
      "geometry": {
        "type": "Point",
        "coordinates": [
          -79.5227366,
          8.98454609
        ]
      },
      "properties": {
        "player": "georoulette",
        "distance": 4414.170487969889,
        "location": "Panamá, Panama",
        "marker-symbol": "circle",
        "marker-color": "#ff0000"
      }
    }
  ]
}
