{
  "type": "FeatureCollection",
  "roundInfo": {
    "number": 17,
    "endedAt": null,
    "language": "es"
  },
  "features": [
    {
      "type": "Feature",
      "id": "target",
      "geometry": {
        "type": "Point",
        "coordinates": [
          -76.90803,
          -9.98626
        ]
      },
      "properties": {
        "player": "Target",
        "distance": null,
        "location": "Ancash, Perú",
        "marker-symbol": "star",
        "marker-color": "#000000"
      }
    }
  ]
}
