{
  "type": "FeatureCollection",
  "roundInfo": {
    "number": 19,
    "endedAt": null,
    "language": "es"
  },
  "features": [
    {
      "type": "Feature",
      "id": "target",
      "geometry": {
        "type": "Point",
        "coordinates": [
          -101.38345,
          21.58199
        ]
      },
      "properties": {
        "player": "Target",
        "distance": null,
        "location": "Guanajuato, México",
        "marker-symbol": "star",
        "marker-color": "#000000"
      }
    },
    {
      "type": "Feature",
      "geometry": {
        "type": "Point",
        "coordinates": [
          -103.3749861,
          20.6714056
        ]
      },
      "properties": {
        "player": "Norton",
        "distance": 230.0415023994034,
        "location": "Jalisco, México",
        "marker-symbol": "circle",
        "marker-color": "#d4af37"
      }
    },
    {
      "type": "Feature",
      "geometry": {
        "type": "Point",
        "coordinates": [
          -99.20399,
          19.44045
        ]
      },
      "properties": {
        "player": "mlc",
        "distance": 328.96286301213127,
        "location": "Distrito Federal, México",
        "marker-symbol": "circle",
        "marker-color": "#c0c0c0"
      }
    },
    {
      "type": "Feature",
      "geometry": {
        "type": "Point",
        "coordinates": [
          -99.1291317,
          19.4430741
        ]
      },
      "properties": {
        "player": "Rikk",
        "distance": 334.17960558030364,
        "location": "Distrito Federal, México",
        "marker-symbol": "circle",
        "marker-color": "#cd7f32"
      }
    },
    {
      "type": "Feature",
      "geometry": {
        "type": "Point",
        "coordinates": [
          -99.133222,
          19.431965
        ]
      },
      "properties": {
        "player": "nhmartin4",
        "distance": 334.76740274630066,
        "location": "Distrito Federal, México",
        "marker-symbol": "circle",
        "marker-color": "#444444"
      }
    },
    {
      "type": "Feature",
      "geometry": {
        "type": "Point",
        "coordinates": [
          -99.1508171,
          19.3014991
        ]
      },
      "properties": {
        "player": "maclang23",
        "distance": 344.1012540430016,
        "location": "Distrito Federal, México",
        "marker-symbol": "circle",
        "marker-color": "#444444"
      }
    },
    {
      "type": "Feature",
      "geometry": {
        "type": "Point",
        "coordinates": [
          -98.46793,
          29.339013
        ]
      },
      "properties": {
        "player": "Loading...",
        "distance": 910.7325382076825,
        "location": "Texas, United States",
        "marker-symbol": "circle",
        "marker-color": "#444444"
      }
    },
    {
      "type": "Feature",
      "geometry": {
        "type": "Point",
        "coordinates": [
          -97.167313,
          29.43342
        ]
      },
      "properties": {
        "player": "maplemanatee",
        "distance": 969.9179155585356,
        "location": "Texas, United States",
        "marker-symbol": "circle",
        "marker-color": "#444444"
      }
    },
    {
      "type": "Feature",
      "geometry": {
        "type": "Point",
        "coordinates": [
          -91.28495,
          14.69527
        ]
      },
      "properties": {
        "player": "BD82",
        "distance": 1312.6342207839564,
        "location": "Sololá, Guatemala",
        "marker-symbol": "circle",
        "marker-color": "#ff0000"
      }
    }
  ]
}
