{
  "type": "FeatureCollection",
  "roundInfo": {
    "number": 21,
    "endedAt": "2026-06-02T00:42:46.428Z",
    "language": "pt",
    "dnsChecks": []
  },
  "features": [
    {
      "type": "Feature",
      "id": "target",
      "geometry": {
        "type": "Point",
        "coordinates": [
          -63.71124,
          -9.22776
        ]
      },
      "properties": {
        "player": "Target",
        "distance": null,
        "location": "Rondônia, Brasil",
        "marker-symbol": "star",
        "marker-color": "#000000"
      }
    },
    {
      "type": "Feature",
      "geometry": {
        "type": "Point",
        "coordinates": [
          -60.4933787,
          -3.1189445
        ]
      },
      "properties": {
        "player": "Rikk",
        "distance": 766.7015320728124,
        "location": "Amazonas, Brazil",
        "marker-symbol": "circle",
        "marker-color": "#d4af37",
        "eliminated": false
      }
    },
    {
      "type": "Feature",
      "geometry": {
        "type": "Point",
        "coordinates": [
          -68.12777,
          -16.349838
        ]
      },
      "properties": {
        "player": "mlc",
        "distance": 925.300244133586,
        "location": "La Paz, Bolivia",
        "marker-symbol": "circle",
        "marker-color": "#c0c0c0",
        "eliminated": false
      }
    },
    {
      "type": "Feature",
      "geometry": {
        "type": "Point",
        "coordinates": [
          -69.68175135411425,
          -15.792372921372134
        ]
      },
      "properties": {
        "player": "maplemanatee",
        "distance": 975.8878022442328,
        "location": "Puno, Peru",
        "marker-symbol": "circle",
        "marker-color": "#cd7f32",
        "eliminated": false
      }
    },
    {
      "type": "Feature",
      "geometry": {
        "type": "Point",
        "coordinates": [
          -71.836061,
          -13.413001
        ]
      },
      "properties": {
        "player": "Loading...",
        "distance": 1000.4445700722339,
        "location": "Cusco, Peru",
        "marker-symbol": "circle",
        "marker-color": "#444444",
        "eliminated": false
      }
    },
    {
      "type": "Feature",
      "geometry": {
        "type": "Point",
        "coordinates": [
          -71.9438611,
          -13.5379167
        ]
      },
      "properties": {
        "player": "maclang23",
        "distance": 1017.1439767224354,
        "location": "Cusco, Peru",
        "marker-symbol": "circle",
        "marker-color": "#444444",
        "eliminated": false
      }
    },
    {
      "type": "Feature",
      "geometry": {
        "type": "Point",
        "coordinates": [
          -77.10850139490529,
          -12.023823440290181
        ]
      },
      "properties": {
        "player": "Norton",
        "distance": 1496.541863015535,
        "location": "Callao, Peru",
        "marker-symbol": "circle",
        "marker-color": "#ff0000",
        "eliminated": true
      }
    }
  ]
}
