{
  "type": "FeatureCollection",
  "roundInfo": {
    "number": 22,
    "endedAt": null,
    "language": "pt"
  },
  "features": [
    {
      "type": "Feature",
      "id": "target",
      "geometry": {
        "type": "Point",
        "coordinates": [
          -67.62523,
          -2.39866
        ]
      },
      "properties": {
        "player": "Target",
        "distance": null,
        "location": "Amazonas, Brasil",
        "marker-symbol": "star",
        "marker-color": "#000000"
      }
    }
  ]
}
