{
  "type": "FeatureCollection",
  "roundInfo": {
    "number": 25,
    "endedAt": "2026-06-06T02:25:08.059Z",
    "language": "es",
    "dnsChecks": []
  },
  "features": [
    {
      "type": "Feature",
      "id": "target",
      "geometry": {
        "type": "Point",
        "coordinates": [
          -62.38924,
          -33.22875
        ]
      },
      "properties": {
        "player": "Target",
        "distance": null,
        "location": "Córdoba, Argentina",
        "marker-symbol": "star",
        "marker-color": "#000000"
      }
    },
    {
      "type": "Feature",
      "geometry": {
        "type": "Point",
        "coordinates": [
          -58.39307,
          -34.58918
        ]
      },
      "properties": {
        "player": "mlc",
        "distance": 398.5607461183891,
        "location": "Ciudad de Buenos Aires, Argentina",
        "marker-symbol": "circle",
        "marker-color": "#d4af37",
        "eliminated": false
      }
    },
    {
      "type": "Feature",
      "geometry": {
        "type": "Point",
        "coordinates": [
          -70.6112625,
          -33.4224707
        ]
      },
      "properties": {
        "player": "Rikk",
        "distance": 764.0159250585257,
        "location": "Santiago Metropolitan, Chile",
        "marker-symbol": "circle",
        "marker-color": "#ff0000",
        "eliminated": true
      }
    }
  ]
}
